STARLINK-31143          
1 58770U 24011F   26068.24493299 -.00000039  00000+0  10792-4 0  9994
2 58770  53.1621  15.6419 0000732  82.7185 277.3899 15.30186255120202
YAM-7                   
1 60504U 24149AN  26068.71799904  .00009009  00000+0  30984-3 0  9997
2 60504  97.3828 149.4631 0001973 296.5121  63.5918 15.30304554 86835
