[{"OBJECT_NAME":"STARLINK-31143","OBJECT_ID":"2024-011F","EPOCH":"2026-03-09T05:52:42.210336","MEAN_MOTION":15.30186255,"ECCENTRICITY":7.328e-5,"INCLINATION":53.1621,"RA_OF_ASC_NODE":15.6419,"ARG_OF_PERICENTER":82.7185,"MEAN_ANOMALY":277.3899,"EPHEMERIS_TYPE":0,"CLASSIFICATION_TYPE":"U","NORAD_CAT_ID":58770,"ELEMENT_SET_NO":999,"REV_AT_EPOCH":12020,"BSTAR":1.0791791e-5,"MEAN_MOTION_DOT":-3.9e-7,"MEAN_MOTION_DDOT":0},{"OBJECT_NAME":"YAM-7","OBJECT_ID":"2024-149AN","EPOCH":"2026-03-09T17:13:55.117920","MEAN_MOTION":15.30304554,"ECCENTRICITY":0.00019733,"INCLINATION":97.3828,"RA_OF_ASC_NODE":149.4631,"ARG_OF_PERICENTER":296.5121,"MEAN_ANOMALY":63.5918,"EPHEMERIS_TYPE":0,"CLASSIFICATION_TYPE":"U","NORAD_CAT_ID":60504,"ELEMENT_SET_NO":999,"REV_AT_EPOCH":8683,"BSTAR":0.00030984439,"MEAN_MOTION_DOT":9.009e-5,"MEAN_MOTION_DDOT":0}]
